[{"OBJECT_NAME":"STARLINK-11111 [DTC]","OBJECT_ID":"2024-091M","EPOCH":"2025-07-31T05:16:03.182592","MEAN_MOTION":15.69712969,"ECCENTRICITY":0.0001323,"INCLINATION":53.1591,"RA_OF_ASC_NODE":217.683,"ARG_OF_PERICENTER":95.4943,"MEAN_ANOMALY":264.6225,"EPHEMERIS_TYPE":0,"CLASSIFICATION_TYPE":"U","NORAD_CAT_ID":59764,"ELEMENT_SET_NO":999,"REV_AT_EPOCH":7075,"BSTAR":-1.6411e-6,"MEAN_MOTION_DOT":-7.88e-6,"MEAN_MOTION_DDOT":0},{"OBJECT_NAME":"STARLINK-11106 [DTC]","OBJECT_ID":"2024-091N","EPOCH":"2025-07-31T05:23:06.806976","MEAN_MOTION":15.69711026,"ECCENTRICITY":0.0001139,"INCLINATION":53.1585,"RA_OF_ASC_NODE":217.716,"ARG_OF_PERICENTER":94.7445,"MEAN_ANOMALY":265.3703,"EPHEMERIS_TYPE":0,"CLASSIFICATION_TYPE":"U","NORAD_CAT_ID":59765,"ELEMENT_SET_NO":999,"REV_AT_EPOCH":7075,"BSTAR":7.0861e-6,"MEAN_MOTION_DOT":2.7e-6,"MEAN_MOTION_DDOT":0},{"OBJECT_NAME":"STARLINK-31739","OBJECT_ID":"2024-091P","EPOCH":"2025-07-30T16:06:01.497888","MEAN_MOTION":15.30203332,"ECCENTRICITY":0.0001058,"INCLINATION":53.1612,"RA_OF_ASC_NODE":335.2192,"ARG_OF_PERICENTER":85.1644,"MEAN_ANOMALY":274.9477,"EPHEMERIS_TYPE":0,"CLASSIFICATION_TYPE":"U","NORAD_CAT_ID":59766,"ELEMENT_SET_NO":999,"REV_AT_EPOCH":6905,"BSTAR":9.2687e-5,"MEAN_MOTION_DOT":2.387e-5,"MEAN_MOTION_DDOT":0},{"OBJECT_NAME":"STARLINK-31828","OBJECT_ID":"2024-091Q","EPOCH":"2025-07-30T14:54:10.710720","MEAN_MOTION":15.3018859,"ECCENTRICITY":0.0001339,"INCLINATION":53.1621,"RA_OF_ASC_NODE":338.4463,"ARG_OF_PERICENTER":80.284,"MEAN_ANOMALY":279.8312,"EPHEMERIS_TYPE":0,"CLASSIFICATION_TYPE":"U","NORAD_CAT_ID":59767,"ELEMENT_SET_NO":999,"REV_AT_EPOCH":6900,"BSTAR":1.6996e-5,"MEAN_MOTION_DOT":1.44e-6,"MEAN_MOTION_DDOT":0},{"OBJECT_NAME":"STARLINK-31826","OBJECT_ID":"2024-091R","EPOCH":"2025-07-30T14:58:44.488128","MEAN_MOTION":15.30187648,"ECCENTRICITY":0.0001337,"INCLINATION":53.1614,"RA_OF_ASC_NODE":338.4701,"ARG_OF_PERICENTER":71.4057,"MEAN_ANOMALY":288.7089,"EPHEMERIS_TYPE":0,"CLASSIFICATION_TYPE":"U","NORAD_CAT_ID":59768,"ELEMENT_SET_NO":999,"REV_AT_EPOCH":6900,"BSTAR":-1.2159e-5,"MEAN_MOTION_DOT":-7.19e-6,"MEAN_MOTION_DDOT":0},{"OBJECT_NAME":"STARLINK-31830","OBJECT_ID":"2024-091S","EPOCH":"2025-07-31T02:01:39.654336","MEAN_MOTION":15.30199474,"ECCENTRICITY":0.0001206,"INCLINATION":53.1616,"RA_OF_ASC_NODE":336.3658,"ARG_OF_PERICENTER":82.5449,"MEAN_ANOMALY":277.5689,"EPHEMERIS_TYPE":0,"CLASSIFICATION_TYPE":"U","NORAD_CAT_ID":59769,"ELEMENT_SET_NO":999,"REV_AT_EPOCH":6883,"BSTAR":5.256e-5,"MEAN_MOTION_DOT":1.198e-5,"MEAN_MOTION_DDOT":0},{"OBJECT_NAME":"STARLINK-31829","OBJECT_ID":"2024-091T","EPOCH":"2025-07-31T01:47:59.000352","MEAN_MOTION":15.30200309,"ECCENTRICITY":0.000136,"INCLINATION":53.1612,"RA_OF_ASC_NODE":336.3086,"ARG_OF_PERICENTER":83.6135,"MEAN_ANOMALY":276.502,"EPHEMERIS_TYPE":0,"CLASSIFICATION_TYPE":"U","NORAD_CAT_ID":59770,"ELEMENT_SET_NO":999,"REV_AT_EPOCH":6883,"BSTAR":5.7102e-5,"MEAN_MOTION_DOT":1.332e-5,"MEAN_MOTION_DDOT":0},{"OBJECT_NAME":"STARLINK-31786","OBJECT_ID":"2024-091U","EPOCH":"2025-07-30T15:09:22.464864","MEAN_MOTION":15.30192505,"ECCENTRICITY":0.0001314,"INCLINATION":53.161,"RA_OF_ASC_NODE":338.5105,"ARG_OF_PERICENTER":68.9305,"MEAN_ANOMALY":291.1836,"EPHEMERIS_TYPE":0,"CLASSIFICATION_TYPE":"U","NORAD_CAT_ID":59771,"ELEMENT_SET_NO":999,"REV_AT_EPOCH":6900,"BSTAR":5.7036e-6,"MEAN_MOTION_DOT":-1.9e-6,"MEAN_MOTION_DDOT":0},{"OBJECT_NAME":"STARLINK-31835","OBJECT_ID":"2024-091V","EPOCH":"2025-07-30T14:45:03.575808","MEAN_MOTION":15.30188293,"ECCENTRICITY":0.0001414,"INCLINATION":53.1619,"RA_OF_ASC_NODE":338.4038,"ARG_OF_PERICENTER":95.9523,"MEAN_ANOMALY":264.1639,"EPHEMERIS_TYPE":0,"CLASSIFICATION_TYPE":"U","NORAD_CAT_ID":59772,"ELEMENT_SET_NO":999,"REV_AT_EPOCH":6900,"BSTAR":2.6756e-5,"MEAN_MOTION_DOT":4.33e-6,"MEAN_MOTION_DDOT":0},{"OBJECT_NAME":"STARLINK-31363","OBJECT_ID":"2024-093A","EPOCH":"2025-07-30T18:42:00.181728","MEAN_MOTION":15.27583658,"ECCENTRICITY":6.63e-5,"INCLINATION":43.0036,"RA_OF_ASC_NODE":18.921,"ARG_OF_PERICENTER":280.7705,"MEAN_ANOMALY":79.3072,"EPHEMERIS_TYPE":0,"CLASSIFICATION_TYPE":"U","NORAD_CAT_ID":59782,"ELEMENT_SET_NO":999,"REV_AT_EPOCH":6879,"BSTAR":2.484e-5,"MEAN_MOTION_DOT":4.22e-6,"MEAN_MOTION_DDOT":0},{"OBJECT_NAME":"STARLINK-31868","OBJECT_ID":"2024-093B","EPOCH":"2025-07-31T04:08:48.204096","MEAN_MOTION":15.27567292,"ECCENTRICITY":0.0001631,"INCLINATION":43.0052,"RA_OF_ASC_NODE":16.68,"ARG_OF_PERICENTER":274.9427,"MEAN_ANOMALY":85.1238,"EPHEMERIS_TYPE":0,"CLASSIFICATION_TYPE":"U","NORAD_CAT_ID":59783,"ELEMENT_SET_NO":999,"REV_AT_EPOCH":6885,"BSTAR":-2.8438e-5,"MEAN_MOTION_DOT":-1.044e-5,"MEAN_MOTION_DDOT":0},{"OBJECT_NAME":"STARLINK-31848","OBJECT_ID":"2024-093C","EPOCH":"2025-07-31T03:31:48.495648","MEAN_MOTION":15.27568217,"ECCENTRICITY":2.13e-5,"INCLINATION":43.0002,"RA_OF_ASC_NODE":16.5676,"ARG_OF_PERICENTER":268.7504,"MEAN_ANOMALY":91.3323,"EPHEMERIS_TYPE":0,"CLASSIFICATION_TYPE":"U","NORAD_CAT_ID":59784,"ELEMENT_SET_NO":999,"REV_AT_EPOCH":6885,"BSTAR":-1.3749e-5,"MEAN_MOTION_DOT":-6.4e-6,"MEAN_MOTION_DDOT":0},{"OBJECT_NAME":"STARLINK-31890","OBJECT_ID":"2024-093D","EPOCH":"2025-07-31T03:37:20.663040","MEAN_MOTION":15.27574603,"ECCENTRICITY":0.0001198,"INCLINATION":42.9988,"RA_OF_ASC_NODE":16.5901,"ARG_OF_PERICENTER":284.5313,"MEAN_ANOMALY":75.5406,"EPHEMERIS_TYPE":0,"CLASSIFICATION_TYPE":"U","NORAD_CAT_ID":59785,"ELEMENT_SET_NO":999,"REV_AT_EPOCH":6883,"BSTAR":0.00012091,"MEAN_MOTION_DOT":3.066e-5,"MEAN_MOTION_DDOT":0},{"OBJECT_NAME":"STARLINK-31862","OBJECT_ID":"2024-093E","EPOCH":"2025-07-31T04:31:56.131104","MEAN_MOTION":15.27574682,"ECCENTRICITY":0.0003522,"INCLINATION":43.0093,"RA_OF_ASC_NODE":19.4831,"ARG_OF_PERICENTER":272.2411,"MEAN_ANOMALY":87.8037,"EPHEMERIS_TYPE":0,"CLASSIFICATION_TYPE":"U","NORAD_CAT_ID":59786,"ELEMENT_SET_NO":999,"REV_AT_EPOCH":6867,"BSTAR":1.6242e-6,"MEAN_MOTION_DOT":-2.19e-6,"MEAN_MOTION_DDOT":0},{"OBJECT_NAME":"STARLINK-31870","OBJECT_ID":"2024-093F","EPOCH":"2025-07-30T19:01:27.113952","MEAN_MOTION":15.27579337,"ECCENTRICITY":0.0001618,"INCLINATION":43.0051,"RA_OF_ASC_NODE":21.6675,"ARG_OF_PERICENTER":284.3014,"MEAN_ANOMALY":75.7658,"EPHEMERIS_TYPE":0,"CLASSIFICATION_TYPE":"U","NORAD_CAT_ID":59787,"ELEMENT_SET_NO":999,"REV_AT_EPOCH":6876,"BSTAR":2.5849e-5,"MEAN_MOTION_DOT":4.49e-6,"MEAN_MOTION_DDOT":0},{"OBJECT_NAME":"STARLINK-31888","OBJECT_ID":"2024-093G","EPOCH":"2025-07-30T17:42:05.961600","MEAN_MOTION":15.27576967,"ECCENTRICITY":0.0001517,"INCLINATION":43.0039,"RA_OF_ASC_NODE":22.1147,"ARG_OF_PERICENTER":283.1046,"MEAN_ANOMALY":76.9637,"EPHEMERIS_TYPE":0,"CLASSIFICATION_TYPE":"U","NORAD_CAT_ID":59788,"ELEMENT_SET_NO":999,"REV_AT_EPOCH":6875,"BSTAR":1.9748e-5,"MEAN_MOTION_DOT":2.81e-6,"MEAN_MOTION_DDOT":0},{"OBJECT_NAME":"STARLINK-31863","OBJECT_ID":"2024-093H","EPOCH":"2025-07-30T19:12:33.441120","MEAN_MOTION":15.27578384,"ECCENTRICITY":0.0001282,"INCLINATION":43.0038,"RA_OF_ASC_NODE":21.7274,"ARG_OF_PERICENTER":290.2444,"MEAN_ANOMALY":69.827,"EPHEMERIS_TYPE":0,"CLASSIFICATION_TYPE":"U","NORAD_CAT_ID":59789,"ELEMENT_SET_NO":999,"REV_AT_EPOCH":6876,"BSTAR":2.1632e-5,"MEAN_MOTION_DOT":3.33e-6,"MEAN_MOTION_DDOT":0},{"OBJECT_NAME":"STARLINK-31873","OBJECT_ID":"2024-093J","EPOCH":"2025-07-30T19:27:21.411072","MEAN_MOTION":15.2758021,"ECCENTRICITY":0.0001294,"INCLINATION":43.0028,"RA_OF_ASC_NODE":21.8004,"ARG_OF_PERICENTER":274.1835,"MEAN_ANOMALY":85.8869,"EPHEMERIS_TYPE":0,"CLASSIFICATION_TYPE":"U","NORAD_CAT_ID":59790,"ELEMENT_SET_NO":999,"REV_AT_EPOCH":6876,"BSTAR":5.2049e-5,"MEAN_MOTION_DOT":1.17e-5,"MEAN_MOTION_DDOT":0},{"OBJECT_NAME":"STARLINK-31865","OBJECT_ID":"2024-093K","EPOCH":"2025-07-30T17:58:46.367328","MEAN_MOTION":15.27553279,"ECCENTRICITY":9.04e-5,"INCLINATION":42.999,"RA_OF_ASC_NODE":22.1977,"ARG_OF_PERICENTER":254.0935,"MEAN_ANOMALY":105.9817,"EPHEMERIS_TYPE":0,"CLASSIFICATION_TYPE":"U","NORAD_CAT_ID":59791,"ELEMENT_SET_NO":999,"REV_AT_EPOCH":6875,"BSTAR":-0.00012019,"MEAN_MOTION_DOT":-3.565e-5,"MEAN_MOTION_DDOT":0},{"OBJECT_NAME":"STARLINK-31823","OBJECT_ID":"2024-093N","EPOCH":"2025-07-30T18:04:17.983488","MEAN_MOTION":15.27580052,"ECCENTRICITY":0.0001275,"INCLINATION":43.0012,"RA_OF_ASC_NODE":22.2261,"ARG_OF_PERICENTER":258.6054,"MEAN_ANOMALY":101.4655,"EPHEMERIS_TYPE":0,"CLASSIFICATION_TYPE":"U","NORAD_CAT_ID":59794,"ELEMENT_SET_NO":999,"REV_AT_EPOCH":6875,"BSTAR":2.1042e-5,"MEAN_MOTION_DOT":3.17e-6,"MEAN_MOTION_DDOT":0},{"OBJECT_NAME":"STARLINK-31916","OBJECT_ID":"2024-093P","EPOCH":"2025-07-30T18:09:50.848992","MEAN_MOTION":15.2758563,"ECCENTRICITY":0.0001036,"INCLINATION":43.0034,"RA_OF_ASC_NODE":22.2566,"ARG_OF_PERICENTER":273.3332,"MEAN_ANOMALY":86.7401,"EPHEMERIS_TYPE":0,"CLASSIFICATION_TYPE":"U","NORAD_CAT_ID":59795,"ELEMENT_SET_NO":999,"REV_AT_EPOCH":6875,"BSTAR":5.4738e-5,"MEAN_MOTION_DOT":1.245e-5,"MEAN_MOTION_DDOT":0},{"OBJECT_NAME":"STARLINK-31907","OBJECT_ID":"2024-093R","EPOCH":"2025-07-30T18:13:34.288896","MEAN_MOTION":15.2756602,"ECCENTRICITY":0.0001157,"INCLINATION":43.0014,"RA_OF_ASC_NODE":22.2758,"ARG_OF_PERICENTER":277.2313,"MEAN_ANOMALY":82.8407,"EPHEMERIS_TYPE":0,"CLASSIFICATION_TYPE":"U","NORAD_CAT_ID":59797,"ELEMENT_SET_NO":999,"REV_AT_EPOCH":6875,"BSTAR":-3.0157e-7,"MEAN_MOTION_DOT":-2.7e-6,"MEAN_MOTION_DDOT":0},{"OBJECT_NAME":"STARLINK-31687","OBJECT_ID":"2024-093S","EPOCH":"2025-07-30T18:50:34.207296","MEAN_MOTION":15.27573413,"ECCENTRICITY":3.7e-5,"INCLINATION":43.0041,"RA_OF_ASC_NODE":22.4667,"ARG_OF_PERICENTER":9.3724,"MEAN_ANOMALY":350.7134,"EPHEMERIS_TYPE":0,"CLASSIFICATION_TYPE":"U","NORAD_CAT_ID":59798,"ELEMENT_SET_NO":999,"REV_AT_EPOCH":6875,"BSTAR":3.7715e-5,"MEAN_MOTION_DOT":7.76e-6,"MEAN_MOTION_DDOT":0}]
